<?xml version="1.0" encoding="UTF-8"?>
<gpx version="1.1" creator="Tiny爪 Hermes Agent"
  xmlns="http://www.topografix.com/GPX/1/1"
  xmlns:xsi="http://www.w3.org/2001/XMLSchema-instance"
  xsi:schemaLocation="http://www.topografix.com/GPX/1/1 http://www.topografix.com/GPX/1/1/gpx.xsd">
  <metadata>
    <name>山手線 Optimized Running Route</name>
    <desc>Yamanote Line Stamp Rally Optimized Running Route — 37.4km along the railway corridor. Station diversions included for stamp collection.</desc>
    <time>2026-04-29T00:56:57Z</time>
    <author><name>Tiny爪</name></author>
  </metadata>
  <wpt lat="35.680596" lon="139.764971">
    <name>東京 #01</name>
    <cmt>Stamp #01 — 東京 Station</cmt>
    <sym>railroad-station</sym>
    <desc>Yamanote Line Stamp Station #01 — step off the running loop here to collect stamp</desc>
  </wpt>
  <wpt lat="35.695281" lon="139.770491">
    <name>神田 #02</name>
    <cmt>Stamp #02 — 神田 Station</cmt>
    <sym>railroad-station</sym>
    <desc>Yamanote Line Stamp Station #02 — step off the running loop here to collect stamp</desc>
  </wpt>
  <wpt lat="35.697527" lon="139.772604">
    <name>秋葉原 #03</name>
    <cmt>Stamp #03 — 秋葉原 Station</cmt>
    <sym>railroad-station</sym>
    <desc>Yamanote Line Stamp Station #03 — step off the running loop here to collect stamp</desc>
  </wpt>
  <wpt lat="35.706953" lon="139.77463">
    <name>御徒町 #04</name>
    <cmt>Stamp #04 — 御徒町 Station</cmt>
    <sym>railroad-station</sym>
    <desc>Yamanote Line Stamp Station #04 — step off the running loop here to collect stamp</desc>
  </wpt>
  <wpt lat="35.711973" lon="139.777006">
    <name>上野 #05</name>
    <cmt>Stamp #05 — 上野 Station</cmt>
    <sym>railroad-station</sym>
    <desc>Yamanote Line Stamp Station #05 — step off the running loop here to collect stamp</desc>
  </wpt>
  <wpt lat="35.721703" lon="139.777917">
    <name>鶯谷 #06</name>
    <cmt>Stamp #06 — 鶯谷 Station</cmt>
    <sym>railroad-station</sym>
    <desc>Yamanote Line Stamp Station #06 — step off the running loop here to collect stamp</desc>
  </wpt>
  <wpt lat="35.728006" lon="139.771378">
    <name>日暮里 #07</name>
    <cmt>Stamp #07 — 日暮里 Station</cmt>
    <sym>railroad-station</sym>
    <desc>Yamanote Line Stamp Station #07 — step off the running loop here to collect stamp</desc>
  </wpt>
  <wpt lat="35.732584" lon="139.767217">
    <name>西日暮里 #08</name>
    <cmt>Stamp #08 — 西日暮里 Station</cmt>
    <sym>railroad-station</sym>
    <desc>Yamanote Line Stamp Station #08 — step off the running loop here to collect stamp</desc>
  </wpt>
  <wpt lat="35.738249" lon="139.760255">
    <name>田端 #09</name>
    <cmt>Stamp #09 — 田端 Station</cmt>
    <sym>railroad-station</sym>
    <desc>Yamanote Line Stamp Station #09 — step off the running loop here to collect stamp</desc>
  </wpt>
  <wpt lat="35.736585" lon="139.747241">
    <name>駒込 #10</name>
    <cmt>Stamp #10 — 駒込 Station</cmt>
    <sym>railroad-station</sym>
    <desc>Yamanote Line Stamp Station #10 — step off the running loop here to collect stamp</desc>
  </wpt>
  <wpt lat="35.733412" lon="139.739427">
    <name>巣鴨 #11</name>
    <cmt>Stamp #11 — 巣鴨 Station</cmt>
    <sym>railroad-station</sym>
    <desc>Yamanote Line Stamp Station #11 — step off the running loop here to collect stamp</desc>
  </wpt>
  <wpt lat="35.731685" lon="139.728588">
    <name>大塚 #12</name>
    <cmt>Stamp #12 — 大塚 Station</cmt>
    <sym>railroad-station</sym>
    <desc>Yamanote Line Stamp Station #12 — step off the running loop here to collect stamp</desc>
  </wpt>
  <wpt lat="35.730443" lon="139.708875">
    <name>池袋 #13</name>
    <cmt>Stamp #13 — 池袋 Station</cmt>
    <sym>railroad-station</sym>
    <desc>Yamanote Line Stamp Station #13 — step off the running loop here to collect stamp</desc>
  </wpt>
  <wpt lat="35.721727" lon="139.706562">
    <name>目白 #14</name>
    <cmt>Stamp #14 — 目白 Station</cmt>
    <sym>railroad-station</sym>
    <desc>Yamanote Line Stamp Station #14 — step off the running loop here to collect stamp</desc>
  </wpt>
  <wpt lat="35.71264" lon="139.703874">
    <name>高田馬場 #15</name>
    <cmt>Stamp #15 — 高田馬場 Station</cmt>
    <sym>railroad-station</sym>
    <desc>Yamanote Line Stamp Station #15 — step off the running loop here to collect stamp</desc>
  </wpt>
  <wpt lat="35.701495" lon="139.699932">
    <name>新大久保 #16</name>
    <cmt>Stamp #16 — 新大久保 Station</cmt>
    <sym>railroad-station</sym>
    <desc>Yamanote Line Stamp Station #16 — step off the running loop here to collect stamp</desc>
  </wpt>
  <wpt lat="35.6895" lon="139.7004">
    <name>新宿 #17</name>
    <cmt>Stamp #17 — 新宿 Station</cmt>
    <sym>railroad-station</sym>
    <desc>Yamanote Line Stamp Station #17 — step off the running loop here to collect stamp</desc>
  </wpt>
  <wpt lat="35.683946" lon="139.701656">
    <name>代々木 #18</name>
    <cmt>Stamp #18 — 代々木 Station</cmt>
    <sym>railroad-station</sym>
    <desc>Yamanote Line Stamp Station #18 — step off the running loop here to collect stamp</desc>
  </wpt>
  <wpt lat="35.670502" lon="139.702414">
    <name>原宿 #19</name>
    <cmt>Stamp #19 — 原宿 Station</cmt>
    <sym>railroad-station</sym>
    <desc>Yamanote Line Stamp Station #19 — step off the running loop here to collect stamp</desc>
  </wpt>
  <wpt lat="35.658967" lon="139.700354">
    <name>渋谷 #20</name>
    <cmt>Stamp #20 — 渋谷 Station</cmt>
    <sym>railroad-station</sym>
    <desc>Yamanote Line Stamp Station #20 — step off the running loop here to collect stamp</desc>
  </wpt>
  <wpt lat="35.646441" lon="139.710208">
    <name>恵比寿 #21</name>
    <cmt>Stamp #21 — 恵比寿 Station</cmt>
    <sym>railroad-station</sym>
    <desc>Yamanote Line Stamp Station #21 — step off the running loop here to collect stamp</desc>
  </wpt>
  <wpt lat="35.61939" lon="139.728487">
    <name>大崎 #22</name>
    <cmt>Stamp #22 — 大崎 Station</cmt>
    <sym>railroad-station</sym>
    <desc>Yamanote Line Stamp Station #22 — step off the running loop here to collect stamp</desc>
  </wpt>
  <wpt lat="35.62649" lon="139.724345">
    <name>五反田 #23</name>
    <cmt>Stamp #23 — 五反田 Station</cmt>
    <sym>railroad-station</sym>
    <desc>Yamanote Line Stamp Station #23 — step off the running loop here to collect stamp</desc>
  </wpt>
  <wpt lat="35.632508" lon="139.715772">
    <name>目黒 #24</name>
    <cmt>Stamp #24 — 目黒 Station</cmt>
    <sym>railroad-station</sym>
    <desc>Yamanote Line Stamp Station #24 — step off the running loop here to collect stamp</desc>
  </wpt>
  <wpt lat="35.628004" lon="139.738008">
    <name>品川 #25</name>
    <cmt>Stamp #25 — 品川 Station</cmt>
    <sym>railroad-station</sym>
    <desc>Yamanote Line Stamp Station #25 — step off the running loop here to collect stamp</desc>
  </wpt>
  <wpt lat="35.6354" lon="139.7407">
    <name>高輪ゲートウェイ #26</name>
    <cmt>Stamp #26 — 高輪ゲートウェイ Station</cmt>
    <sym>railroad-station</sym>
    <desc>Yamanote Line Stamp Station #26 — step off the running loop here to collect stamp</desc>
  </wpt>
  <wpt lat="35.645667" lon="139.747465">
    <name>田町 #27</name>
    <cmt>Stamp #27 — 田町 Station</cmt>
    <sym>railroad-station</sym>
    <desc>Yamanote Line Stamp Station #27 — step off the running loop here to collect stamp</desc>
  </wpt>
  <wpt lat="35.655111" lon="139.757062">
    <name>浜松町 #28</name>
    <cmt>Stamp #28 — 浜松町 Station</cmt>
    <sym>railroad-station</sym>
    <desc>Yamanote Line Stamp Station #28 — step off the running loop here to collect stamp</desc>
  </wpt>
  <wpt lat="35.666915" lon="139.758519">
    <name>新橋 #29</name>
    <cmt>Stamp #29 — 新橋 Station</cmt>
    <sym>railroad-station</sym>
    <desc>Yamanote Line Stamp Station #29 — step off the running loop here to collect stamp</desc>
  </wpt>
  <wpt lat="35.6756" lon="139.763303">
    <name>有楽町 #30</name>
    <cmt>Stamp #30 — 有楽町 Station</cmt>
    <sym>railroad-station</sym>
    <desc>Yamanote Line Stamp Station #30 — step off the running loop here to collect stamp</desc>
  </wpt>
  <trk>
    <name>山手線 Stamp Rally Running Route</name>
    <type>running</type>
    <desc>Optimized running route: 37.4km along Yamanote Line corridor. All 30 stations with stamp diversion points.</desc>
    <trkseg>
      <trkpt lat="35.681017" lon="139.764937">
      </trkpt>
      <trkpt lat="35.681514" lon="139.764949">
      </trkpt>
      <trkpt lat="35.682053" lon="139.765093">
      </trkpt>
      <trkpt lat="35.682613" lon="139.765235">
      </trkpt>
      <trkpt lat="35.683060" lon="139.765329">
      </trkpt>
      <trkpt lat="35.683559" lon="139.765432">
      </trkpt>
      <trkpt lat="35.684094" lon="139.765544">
      </trkpt>
      <trkpt lat="35.684661" lon="139.765662">
      </trkpt>
      <trkpt lat="35.685261" lon="139.765783">
      </trkpt>
      <trkpt lat="35.685901" lon="139.765911">
      </trkpt>
      <trkpt lat="35.686349" lon="139.766015">
      </trkpt>
      <trkpt lat="35.686809" lon="139.766136">
      </trkpt>
      <trkpt lat="35.687275" lon="139.766259">
      </trkpt>
      <trkpt lat="35.687741" lon="139.766373">
      </trkpt>
      <trkpt lat="35.688207" lon="139.766484">
      </trkpt>
      <trkpt lat="35.688674" lon="139.766591">
      </trkpt>
      <trkpt lat="35.689146" lon="139.766692">
      </trkpt>
      <trkpt lat="35.689602" lon="139.766785">
      </trkpt>
      <trkpt lat="35.690248" lon="139.766904">
      </trkpt>
      <trkpt lat="35.690875" lon="139.767008">
      </trkpt>
      <trkpt lat="35.691494" lon="139.767128">
      </trkpt>
      <trkpt lat="35.692069" lon="139.767277">
      </trkpt>
      <trkpt lat="35.692616" lon="139.767494">
      </trkpt>
      <trkpt lat="35.693088" lon="139.767726">
      </trkpt>
      <trkpt lat="35.693581" lon="139.768009">
      </trkpt>
      <trkpt lat="35.693985" lon="139.768276">
      </trkpt>
      <trkpt lat="35.694358" lon="139.768624">
      </trkpt>
      <trkpt lat="35.694805" lon="139.768975">
      </trkpt>
      <trkpt lat="35.695164" lon="139.769315">
      </trkpt>
      <trkpt lat="35.695558" lon="139.769726">
      </trkpt>
      <trkpt lat="35.695870" lon="139.770220">
      </trkpt>
      <trkpt lat="35.696068" lon="139.770738">
      </trkpt>
      <trkpt lat="35.696297" lon="139.771277">
      </trkpt>
      <trkpt lat="35.696664" lon="139.771603">
      </trkpt>
      <trkpt lat="35.697035" lon="139.771960">
      </trkpt>
      <trkpt lat="35.697269" lon="139.772437">
      </trkpt>
      <trkpt lat="35.697569" lon="139.772938">
      </trkpt>
      <trkpt lat="35.697862" lon="139.773402">
      </trkpt>
      <trkpt lat="35.698188" lon="139.773829">
      </trkpt>
      <trkpt lat="35.698648" lon="139.774180">
      </trkpt>
      <trkpt lat="35.699078" lon="139.774379">
      </trkpt>
      <trkpt lat="35.699614" lon="139.774534">
      </trkpt>
      <trkpt lat="35.700105" lon="139.774729">
      </trkpt>
      <trkpt lat="35.700639" lon="139.774935">
      </trkpt>
      <trkpt lat="35.701175" lon="139.775134">
      </trkpt>
      <trkpt lat="35.701715" lon="139.775281">
      </trkpt>
      <trkpt lat="35.702265" lon="139.775348">
      </trkpt>
      <trkpt lat="35.702841" lon="139.775356">
      </trkpt>
      <trkpt lat="35.703445" lon="139.775312">
      </trkpt>
      <trkpt lat="35.704038" lon="139.775278">
      </trkpt>
      <trkpt lat="35.704579" lon="139.775268">
      </trkpt>
      <trkpt lat="35.705073" lon="139.775300">
      </trkpt>
      <trkpt lat="35.705562" lon="139.775346">
      </trkpt>
      <trkpt lat="35.706067" lon="139.775398">
      </trkpt>
      <trkpt lat="35.706584" lon="139.775453">
      </trkpt>
      <trkpt lat="35.707099" lon="139.775503">
      </trkpt>
      <trkpt lat="35.707620" lon="139.775550">
      </trkpt>
      <trkpt lat="35.708100" lon="139.775618">
      </trkpt>
      <trkpt lat="35.708550" lon="139.775715">
      </trkpt>
      <trkpt lat="35.709037" lon="139.775866">
      </trkpt>
      <trkpt lat="35.709497" lon="139.776066">
      </trkpt>
      <trkpt lat="35.709913" lon="139.776312">
      </trkpt>
      <trkpt lat="35.710388" lon="139.776623">
      </trkpt>
      <trkpt lat="35.710924" lon="139.777014">
      </trkpt>
      <trkpt lat="35.711471" lon="139.777444">
      </trkpt>
      <trkpt lat="35.711857" lon="139.777736">
      </trkpt>
      <trkpt lat="35.712262" lon="139.778029">
      </trkpt>
      <trkpt lat="35.712686" lon="139.778326">
      </trkpt>
      <trkpt lat="35.713131" lon="139.778622">
      </trkpt>
      <trkpt lat="35.713595" lon="139.778907">
      </trkpt>
      <trkpt lat="35.714061" lon="139.779195">
      </trkpt>
      <trkpt lat="35.714502" lon="139.779480">
      </trkpt>
      <trkpt lat="35.714914" lon="139.779760">
      </trkpt>
      <trkpt lat="35.715305" lon="139.780037">
      </trkpt>
      <trkpt lat="35.715853" lon="139.780390">
      </trkpt>
      <trkpt lat="35.716385" lon="139.780694">
      </trkpt>
      <trkpt lat="35.716916" lon="139.780959">
      </trkpt>
      <trkpt lat="35.717446" lon="139.781167">
      </trkpt>
      <trkpt lat="35.717976" lon="139.781334">
      </trkpt>
      <trkpt lat="35.718473" lon="139.781445">
      </trkpt>
      <trkpt lat="35.718928" lon="139.781518">
      </trkpt>
      <trkpt lat="35.719458" lon="139.781468">
      </trkpt>
      <trkpt lat="35.719856" lon="139.781081">
      </trkpt>
      <trkpt lat="35.720108" lon="139.780542">
      </trkpt>
      <trkpt lat="35.720321" lon="139.780023">
      </trkpt>
      <trkpt lat="35.720438" lon="139.779428">
      </trkpt>
      <trkpt lat="35.720374" lon="139.778852">
      </trkpt>
      <trkpt lat="35.720865" lon="139.778734">
      </trkpt>
      <trkpt lat="35.721357" lon="139.778824">
      </trkpt>
      <trkpt lat="35.721867" lon="139.778909">
      </trkpt>
      <trkpt lat="35.722320" lon="139.778704">
      </trkpt>
      <trkpt lat="35.722781" lon="139.778426">
      </trkpt>
      <trkpt lat="35.723201" lon="139.778198">
      </trkpt>
      <trkpt lat="35.723659" lon="139.777916">
      </trkpt>
      <trkpt lat="35.724142" lon="139.777564">
      </trkpt>
      <trkpt lat="35.724600" lon="139.777147">
      </trkpt>
      <trkpt lat="35.725020" lon="139.776650">
      </trkpt>
      <trkpt lat="35.725396" lon="139.776162">
      </trkpt>
      <trkpt lat="35.725732" lon="139.775707">
      </trkpt>
      <trkpt lat="35.726046" lon="139.775262">
      </trkpt>
      <trkpt lat="35.726392" lon="139.774787">
      </trkpt>
      <trkpt lat="35.726726" lon="139.774341">
      </trkpt>
      <trkpt lat="35.727024" lon="139.773878">
      </trkpt>
      <trkpt lat="35.727268" lon="139.773367">
      </trkpt>
      <trkpt lat="35.727489" lon="139.772865">
      </trkpt>
      <trkpt lat="35.727728" lon="139.772230">
      </trkpt>
      <trkpt lat="35.727898" lon="139.771642">
      </trkpt>
      <trkpt lat="35.728005" lon="139.771103">
      </trkpt>
      <trkpt lat="35.728054" lon="139.770456">
      </trkpt>
      <trkpt lat="35.727975" lon="139.769853">
      </trkpt>
      <trkpt lat="35.727885" lon="139.769216">
      </trkpt>
      <trkpt lat="35.727897" lon="139.768605">
      </trkpt>
      <trkpt lat="35.727907" lon="139.767968">
      </trkpt>
      <trkpt lat="35.727964" lon="139.767399">
      </trkpt>
      <trkpt lat="35.728174" lon="139.766875">
      </trkpt>
      <trkpt lat="35.728527" lon="139.766460">
      </trkpt>
      <trkpt lat="35.728919" lon="139.766185">
      </trkpt>
      <trkpt lat="35.729372" lon="139.765966">
      </trkpt>
      <trkpt lat="35.729846" lon="139.765845">
      </trkpt>
      <trkpt lat="35.730348" lon="139.765930">
      </trkpt>
      <trkpt lat="35.730787" lon="139.766098">
      </trkpt>
      <trkpt lat="35.731270" lon="139.766253">
      </trkpt>
      <trkpt lat="35.731747" lon="139.766380">
      </trkpt>
      <trkpt lat="35.732211" lon="139.766400">
      </trkpt>
      <trkpt lat="35.732758" lon="139.766374">
      </trkpt>
      <trkpt lat="35.733248" lon="139.766264">
      </trkpt>
      <trkpt lat="35.733772" lon="139.766118">
      </trkpt>
      <trkpt lat="35.734311" lon="139.765957">
      </trkpt>
      <trkpt lat="35.734736" lon="139.765771">
      </trkpt>
      <trkpt lat="35.735150" lon="139.765501">
      </trkpt>
      <trkpt lat="35.735552" lon="139.765185">
      </trkpt>
      <trkpt lat="35.735884" lon="139.764753">
      </trkpt>
      <trkpt lat="35.736184" lon="139.764304">
      </trkpt>
      <trkpt lat="35.736471" lon="139.763851">
      </trkpt>
      <trkpt lat="35.736787" lon="139.763425">
      </trkpt>
      <trkpt lat="35.737128" lon="139.762980">
      </trkpt>
      <trkpt lat="35.737486" lon="139.762539">
      </trkpt>
      <trkpt lat="35.737814" lon="139.762105">
      </trkpt>
      <trkpt lat="35.738106" lon="139.761544">
      </trkpt>
      <trkpt lat="35.738319" lon="139.760984">
      </trkpt>
      <trkpt lat="35.738493" lon="139.760355">
      </trkpt>
      <trkpt lat="35.738626" lon="139.759745">
      </trkpt>
      <trkpt lat="35.738739" lon="139.759126">
      </trkpt>
      <trkpt lat="35.738827" lon="139.758518">
      </trkpt>
      <trkpt lat="35.738991" lon="139.757976">
      </trkpt>
      <trkpt lat="35.739242" lon="139.757436">
      </trkpt>
      <trkpt lat="35.739516" lon="139.756893">
      </trkpt>
      <trkpt lat="35.739761" lon="139.756348">
      </trkpt>
      <trkpt lat="35.740017" lon="139.755743">
      </trkpt>
      <trkpt lat="35.740277" lon="139.755249">
      </trkpt>
      <trkpt lat="35.740555" lon="139.754695">
      </trkpt>
      <trkpt lat="35.740826" lon="139.754122">
      </trkpt>
      <trkpt lat="35.741094" lon="139.753490">
      </trkpt>
      <trkpt lat="35.741294" lon="139.752963">
      </trkpt>
      <trkpt lat="35.741478" lon="139.752440">
      </trkpt>
      <trkpt lat="35.741617" lon="139.751787">
      </trkpt>
      <trkpt lat="35.741692" lon="139.751157">
      </trkpt>
      <trkpt lat="35.741700" lon="139.750543">
      </trkpt>
      <trkpt lat="35.741614" lon="139.749935">
      </trkpt>
      <trkpt lat="35.741431" lon="139.749310">
      </trkpt>
      <trkpt lat="35.741204" lon="139.748706">
      </trkpt>
      <trkpt lat="35.740913" lon="139.748171">
      </trkpt>
      <trkpt lat="35.740567" lon="139.747709">
      </trkpt>
      <trkpt lat="35.740178" lon="139.747370">
      </trkpt>
      <trkpt lat="35.739661" lon="139.747127">
      </trkpt>
      <trkpt lat="35.739128" lon="139.747095">
      </trkpt>
      <trkpt lat="35.738604" lon="139.747190">
      </trkpt>
      <trkpt lat="35.738153" lon="139.747268">
      </trkpt>
      <trkpt lat="35.737702" lon="139.747378">
      </trkpt>
      <trkpt lat="35.737315" lon="139.747063">
      </trkpt>
      <trkpt lat="35.737129" lon="139.746494">
      </trkpt>
      <trkpt lat="35.736848" lon="139.746016">
      </trkpt>
      <trkpt lat="35.736539" lon="139.745465">
      </trkpt>
      <trkpt lat="35.736281" lon="139.744983">
      </trkpt>
      <trkpt lat="35.736010" lon="139.744450">
      </trkpt>
      <trkpt lat="35.735742" lon="139.743884">
      </trkpt>
      <trkpt lat="35.735513" lon="139.743293">
      </trkpt>
      <trkpt lat="35.735263" lon="139.742710">
      </trkpt>
      <trkpt lat="35.735006" lon="139.742123">
      </trkpt>
      <trkpt lat="35.734739" lon="139.741538">
      </trkpt>
      <trkpt lat="35.734428" lon="139.740943">
      </trkpt>
      <trkpt lat="35.734186" lon="139.740459">
      </trkpt>
      <trkpt lat="35.733941" lon="139.739942">
      </trkpt>
      <trkpt lat="35.733693" lon="139.739411">
      </trkpt>
      <trkpt lat="35.733464" lon="139.738887">
      </trkpt>
      <trkpt lat="35.733216" lon="139.738272">
      </trkpt>
      <trkpt lat="35.732968" lon="139.737643">
      </trkpt>
      <trkpt lat="35.732722" lon="139.737003">
      </trkpt>
      <trkpt lat="35.732511" lon="139.736400">
      </trkpt>
      <trkpt lat="35.732322" lon="139.735828">
      </trkpt>
      <trkpt lat="35.732144" lon="139.735204">
      </trkpt>
      <trkpt lat="35.732000" lon="139.734558">
      </trkpt>
      <trkpt lat="35.731883" lon="139.733903">
      </trkpt>
      <trkpt lat="35.731811" lon="139.733257">
      </trkpt>
      <trkpt lat="35.731784" lon="139.732635">
      </trkpt>
      <trkpt lat="35.731772" lon="139.731967">
      </trkpt>
      <trkpt lat="35.731782" lon="139.731319">
      </trkpt>
      <trkpt lat="35.731805" lon="139.730721">
      </trkpt>
      <trkpt lat="35.731879" lon="139.730102">
      </trkpt>
      <trkpt lat="35.731992" lon="139.729440">
      </trkpt>
      <trkpt lat="35.732075" lon="139.728817">
      </trkpt>
      <trkpt lat="35.732105" lon="139.728211">
      </trkpt>
      <trkpt lat="35.732074" lon="139.727608">
      </trkpt>
      <trkpt lat="35.732031" lon="139.727010">
      </trkpt>
      <trkpt lat="35.732001" lon="139.726388">
      </trkpt>
      <trkpt lat="35.731958" lon="139.725700">
      </trkpt>
      <trkpt lat="35.731888" lon="139.725092">
      </trkpt>
      <trkpt lat="35.731878" lon="139.724380">
      </trkpt>
      <trkpt lat="35.731894" lon="139.723806">
      </trkpt>
      <trkpt lat="35.731922" lon="139.723216">
      </trkpt>
      <trkpt lat="35.731978" lon="139.722589">
      </trkpt>
      <trkpt lat="35.732025" lon="139.722035">
      </trkpt>
      <trkpt lat="35.732104" lon="139.721332">
      </trkpt>
      <trkpt lat="35.732231" lon="139.720640">
      </trkpt>
      <trkpt lat="35.732410" lon="139.719982">
      </trkpt>
      <trkpt lat="35.732625" lon="139.719350">
      </trkpt>
      <trkpt lat="35.732808" lon="139.718694">
      </trkpt>
      <trkpt lat="35.732942" lon="139.718016">
      </trkpt>
      <trkpt lat="35.733107" lon="139.717339">
      </trkpt>
      <trkpt lat="35.733333" lon="139.716657">
      </trkpt>
      <trkpt lat="35.733535" lon="139.716010">
      </trkpt>
      <trkpt lat="35.733636" lon="139.715432">
      </trkpt>
      <trkpt lat="35.733699" lon="139.714837">
      </trkpt>
      <trkpt lat="35.733722" lon="139.714266">
      </trkpt>
      <trkpt lat="35.733717" lon="139.713701">
      </trkpt>
      <trkpt lat="35.733686" lon="139.713111">
      </trkpt>
      <trkpt lat="35.733570" lon="139.712503">
      </trkpt>
      <trkpt lat="35.733364" lon="139.711893">
      </trkpt>
      <trkpt lat="35.733096" lon="139.711293">
      </trkpt>
      <trkpt lat="35.732826" lon="139.710777">
      </trkpt>
      <trkpt lat="35.732504" lon="139.710278">
      </trkpt>
      <trkpt lat="35.732112" lon="139.709893">
      </trkpt>
      <trkpt lat="35.731722" lon="139.709546">
      </trkpt>
      <trkpt lat="35.731337" lon="139.709255">
      </trkpt>
      <trkpt lat="35.730873" lon="139.709033">
      </trkpt>
      <trkpt lat="35.730359" lon="139.708822">
      </trkpt>
      <trkpt lat="35.729912" lon="139.708668">
      </trkpt>
      <trkpt lat="35.729468" lon="139.708565">
      </trkpt>
      <trkpt lat="35.728981" lon="139.708499">
      </trkpt>
      <trkpt lat="35.728522" lon="139.708471">
      </trkpt>
      <trkpt lat="35.728050" lon="139.708418">
      </trkpt>
      <trkpt lat="35.727561" lon="139.708309">
      </trkpt>
      <trkpt lat="35.727017" lon="139.708180">
      </trkpt>
      <trkpt lat="35.726541" lon="139.708049">
      </trkpt>
      <trkpt lat="35.726003" lon="139.707885">
      </trkpt>
      <trkpt lat="35.725471" lon="139.707722">
      </trkpt>
      <trkpt lat="35.724968" lon="139.707627">
      </trkpt>
      <trkpt lat="35.724500" lon="139.707563">
      </trkpt>
      <trkpt lat="35.723977" lon="139.707475">
      </trkpt>
      <trkpt lat="35.723432" lon="139.707368">
      </trkpt>
      <trkpt lat="35.722874" lon="139.707265">
      </trkpt>
      <trkpt lat="35.722261" lon="139.707137">
      </trkpt>
      <trkpt lat="35.721654" lon="139.706993">
      </trkpt>
      <trkpt lat="35.721025" lon="139.706841">
      </trkpt>
      <trkpt lat="35.720368" lon="139.706675">
      </trkpt>
      <trkpt lat="35.719924" lon="139.706559">
      </trkpt>
      <trkpt lat="35.719467" lon="139.706439">
      </trkpt>
      <trkpt lat="35.719000" lon="139.706316">
      </trkpt>
      <trkpt lat="35.718555" lon="139.706174">
      </trkpt>
      <trkpt lat="35.717936" lon="139.705959">
      </trkpt>
      <trkpt lat="35.717342" lon="139.705730">
      </trkpt>
      <trkpt lat="35.716785" lon="139.705521">
      </trkpt>
      <trkpt lat="35.716243" lon="139.705333">
      </trkpt>
      <trkpt lat="35.715672" lon="139.705139">
      </trkpt>
      <trkpt lat="35.715087" lon="139.704910">
      </trkpt>
      <trkpt lat="35.714499" lon="139.704665">
      </trkpt>
      <trkpt lat="35.713984" lon="139.704433">
      </trkpt>
      <trkpt lat="35.713497" lon="139.704237">
      </trkpt>
      <trkpt lat="35.713023" lon="139.704088">
      </trkpt>
      <trkpt lat="35.712573" lon="139.703910">
      </trkpt>
      <trkpt lat="35.712128" lon="139.703742">
      </trkpt>
      <trkpt lat="35.711528" lon="139.703509">
      </trkpt>
      <trkpt lat="35.710883" lon="139.703260">
      </trkpt>
      <trkpt lat="35.710420" lon="139.703090">
      </trkpt>
      <trkpt lat="35.709919" lon="139.702917">
      </trkpt>
      <trkpt lat="35.709442" lon="139.702733">
      </trkpt>
      <trkpt lat="35.708973" lon="139.702542">
      </trkpt>
      <trkpt lat="35.708495" lon="139.702363">
      </trkpt>
      <trkpt lat="35.707966" lon="139.702192">
      </trkpt>
      <trkpt lat="35.707413" lon="139.702034">
      </trkpt>
      <trkpt lat="35.706860" lon="139.701911">
      </trkpt>
      <trkpt lat="35.706315" lon="139.701788">
      </trkpt>
      <trkpt lat="35.705742" lon="139.701664">
      </trkpt>
      <trkpt lat="35.705171" lon="139.701543">
      </trkpt>
      <trkpt lat="35.704627" lon="139.701432">
      </trkpt>
      <trkpt lat="35.704068" lon="139.701321">
      </trkpt>
      <trkpt lat="35.703509" lon="139.701217">
      </trkpt>
      <trkpt lat="35.702955" lon="139.701126">
      </trkpt>
      <trkpt lat="35.702409" lon="139.701049">
      </trkpt>
      <trkpt lat="35.701855" lon="139.700972">
      </trkpt>
      <trkpt lat="35.701290" lon="139.700878">
      </trkpt>
      <trkpt lat="35.700723" lon="139.700761">
      </trkpt>
      <trkpt lat="35.700156" lon="139.700649">
      </trkpt>
      <trkpt lat="35.699590" lon="139.700562">
      </trkpt>
      <trkpt lat="35.699014" lon="139.700483">
      </trkpt>
      <trkpt lat="35.698465" lon="139.700416">
      </trkpt>
      <trkpt lat="35.697845" lon="139.700382">
      </trkpt>
      <trkpt lat="35.697270" lon="139.700348">
      </trkpt>
      <trkpt lat="35.696789" lon="139.700320">
      </trkpt>
      <trkpt lat="35.696318" lon="139.700324">
      </trkpt>
      <trkpt lat="35.695827" lon="139.700352">
      </trkpt>
      <trkpt lat="35.695269" lon="139.700404">
      </trkpt>
      <trkpt lat="35.694732" lon="139.700411">
      </trkpt>
      <trkpt lat="35.694187" lon="139.700442">
      </trkpt>
      <trkpt lat="35.693711" lon="139.700527">
      </trkpt>
      <trkpt lat="35.693264" lon="139.700720">
      </trkpt>
      <trkpt lat="35.692857" lon="139.701032">
      </trkpt>
      <trkpt lat="35.692533" lon="139.701435">
      </trkpt>
      <trkpt lat="35.692201" lon="139.701927">
      </trkpt>
      <trkpt lat="35.691862" lon="139.702315">
      </trkpt>
      <trkpt lat="35.691475" lon="139.702679">
      </trkpt>
      <trkpt lat="35.691016" lon="139.702822">
      </trkpt>
      <trkpt lat="35.690518" lon="139.702626">
      </trkpt>
      <trkpt lat="35.690114" lon="139.702323">
      </trkpt>
      <trkpt lat="35.689695" lon="139.702050">
      </trkpt>
      <trkpt lat="35.689310" lon="139.701757">
      </trkpt>
      <trkpt lat="35.689119" lon="139.701250">
      </trkpt>
      <trkpt lat="35.688686" lon="139.701410">
      </trkpt>
      <trkpt lat="35.688152" lon="139.701411">
      </trkpt>
      <trkpt lat="35.687614" lon="139.701246">
      </trkpt>
      <trkpt lat="35.687093" lon="139.701059">
      </trkpt>
      <trkpt lat="35.686523" lon="139.700895">
      </trkpt>
      <trkpt lat="35.686028" lon="139.700840">
      </trkpt>
      <trkpt lat="35.685517" lon="139.700857">
      </trkpt>
      <trkpt lat="35.685004" lon="139.700934">
      </trkpt>
      <trkpt lat="35.684491" lon="139.701101">
      </trkpt>
      <trkpt lat="35.683984" lon="139.701326">
      </trkpt>
      <trkpt lat="35.683497" lon="139.701631">
      </trkpt>
      <trkpt lat="35.683023" lon="139.701956">
      </trkpt>
      <trkpt lat="35.682594" lon="139.702258">
      </trkpt>
      <trkpt lat="35.682084" lon="139.702605">
      </trkpt>
      <trkpt lat="35.681684" lon="139.702868">
      </trkpt>
      <trkpt lat="35.681261" lon="139.703146">
      </trkpt>
      <trkpt lat="35.680821" lon="139.703436">
      </trkpt>
      <trkpt lat="35.680390" lon="139.703728">
      </trkpt>
      <trkpt lat="35.679988" lon="139.704011">
      </trkpt>
      <trkpt lat="35.679594" lon="139.704293">
      </trkpt>
      <trkpt lat="35.679203" lon="139.704576">
      </trkpt>
      <trkpt lat="35.678710" lon="139.704941">
      </trkpt>
      <trkpt lat="35.678245" lon="139.705295">
      </trkpt>
      <trkpt lat="35.677765" lon="139.705577">
      </trkpt>
      <trkpt lat="35.677223" lon="139.705690">
      </trkpt>
      <trkpt lat="35.676637" lon="139.705649">
      </trkpt>
      <trkpt lat="35.676045" lon="139.705561">
      </trkpt>
      <trkpt lat="35.675589" lon="139.705476">
      </trkpt>
      <trkpt lat="35.675129" lon="139.705377">
      </trkpt>
      <trkpt lat="35.674683" lon="139.705240">
      </trkpt>
      <trkpt lat="35.674241" lon="139.705074">
      </trkpt>
      <trkpt lat="35.673798" lon="139.704891">
      </trkpt>
      <trkpt lat="35.673362" lon="139.704691">
      </trkpt>
      <trkpt lat="35.672924" lon="139.704482">
      </trkpt>
      <trkpt lat="35.672387" lon="139.704173">
      </trkpt>
      <trkpt lat="35.671904" lon="139.703824">
      </trkpt>
      <trkpt lat="35.671487" lon="139.703451">
      </trkpt>
      <trkpt lat="35.671163" lon="139.703002">
      </trkpt>
      <trkpt lat="35.670752" lon="139.702631">
      </trkpt>
      <trkpt lat="35.670308" lon="139.702448">
      </trkpt>
      <trkpt lat="35.669870" lon="139.702296">
      </trkpt>
      <trkpt lat="35.669353" lon="139.702152">
      </trkpt>
      <trkpt lat="35.668808" lon="139.702015">
      </trkpt>
      <trkpt lat="35.668303" lon="139.701921">
      </trkpt>
      <trkpt lat="35.667779" lon="139.701826">
      </trkpt>
      <trkpt lat="35.667196" lon="139.701726">
      </trkpt>
      <trkpt lat="35.666652" lon="139.701635">
      </trkpt>
      <trkpt lat="35.666033" lon="139.701541">
      </trkpt>
      <trkpt lat="35.665468" lon="139.701463">
      </trkpt>
      <trkpt lat="35.664921" lon="139.701388">
      </trkpt>
      <trkpt lat="35.664351" lon="139.701303">
      </trkpt>
      <trkpt lat="35.663766" lon="139.701213">
      </trkpt>
      <trkpt lat="35.663180" lon="139.701122">
      </trkpt>
      <trkpt lat="35.662607" lon="139.701031">
      </trkpt>
      <trkpt lat="35.662055" lon="139.700942">
      </trkpt>
      <trkpt lat="35.661594" lon="139.700862">
      </trkpt>
      <trkpt lat="35.661049" lon="139.700779">
      </trkpt>
      <trkpt lat="35.660585" lon="139.700723">
      </trkpt>
      <trkpt lat="35.660084" lon="139.700672">
      </trkpt>
      <trkpt lat="35.659594" lon="139.700640">
      </trkpt>
      <trkpt lat="35.659103" lon="139.700627">
      </trkpt>
      <trkpt lat="35.658605" lon="139.700639">
      </trkpt>
      <trkpt lat="35.658123" lon="139.700748">
      </trkpt>
      <trkpt lat="35.657665" lon="139.701044">
      </trkpt>
      <trkpt lat="35.657231" lon="139.701432">
      </trkpt>
      <trkpt lat="35.656817" lon="139.701822">
      </trkpt>
      <trkpt lat="35.656455" lon="139.702158">
      </trkpt>
      <trkpt lat="35.656067" lon="139.702547">
      </trkpt>
      <trkpt lat="35.655624" lon="139.702996">
      </trkpt>
      <trkpt lat="35.655265" lon="139.703358">
      </trkpt>
      <trkpt lat="35.654892" lon="139.703737">
      </trkpt>
      <trkpt lat="35.654514" lon="139.704116">
      </trkpt>
      <trkpt lat="35.654111" lon="139.704496">
      </trkpt>
      <trkpt lat="35.653667" lon="139.704890">
      </trkpt>
      <trkpt lat="35.653202" lon="139.705279">
      </trkpt>
      <trkpt lat="35.652724" lon="139.705660">
      </trkpt>
      <trkpt lat="35.652247" lon="139.706033">
      </trkpt>
      <trkpt lat="35.651768" lon="139.706402">
      </trkpt>
      <trkpt lat="35.651277" lon="139.706755">
      </trkpt>
      <trkpt lat="35.650799" lon="139.707079">
      </trkpt>
      <trkpt lat="35.650341" lon="139.707384">
      </trkpt>
      <trkpt lat="35.649895" lon="139.707694">
      </trkpt>
      <trkpt lat="35.649447" lon="139.708009">
      </trkpt>
      <trkpt lat="35.648965" lon="139.708311">
      </trkpt>
      <trkpt lat="35.648438" lon="139.708592">
      </trkpt>
      <trkpt lat="35.647919" lon="139.708833">
      </trkpt>
      <trkpt lat="35.647401" lon="139.709044">
      </trkpt>
      <trkpt lat="35.646862" lon="139.709219">
      </trkpt>
      <trkpt lat="35.646312" lon="139.709378">
      </trkpt>
      <trkpt lat="35.645786" lon="139.709545">
      </trkpt>
      <trkpt lat="35.645291" lon="139.709669">
      </trkpt>
      <trkpt lat="35.644802" lon="139.709747">
      </trkpt>
      <trkpt lat="35.644302" lon="139.709770">
      </trkpt>
      <trkpt lat="35.643789" lon="139.709739">
      </trkpt>
      <trkpt lat="35.643270" lon="139.709631">
      </trkpt>
      <trkpt lat="35.642738" lon="139.709484">
      </trkpt>
      <trkpt lat="35.642204" lon="139.709285">
      </trkpt>
      <trkpt lat="35.641653" lon="139.709033">
      </trkpt>
      <trkpt lat="35.641074" lon="139.708787">
      </trkpt>
      <trkpt lat="35.640485" lon="139.708552">
      </trkpt>
      <trkpt lat="35.639882" lon="139.708338">
      </trkpt>
      <trkpt lat="35.639282" lon="139.708164">
      </trkpt>
      <trkpt lat="35.638834" lon="139.708096">
      </trkpt>
      <trkpt lat="35.638351" lon="139.708061">
      </trkpt>
      <trkpt lat="35.637857" lon="139.708054">
      </trkpt>
      <trkpt lat="35.637363" lon="139.708073">
      </trkpt>
      <trkpt lat="35.636866" lon="139.708108">
      </trkpt>
      <trkpt lat="35.636376" lon="139.708148">
      </trkpt>
      <trkpt lat="35.635886" lon="139.708185">
      </trkpt>
      <trkpt lat="35.635397" lon="139.708235">
      </trkpt>
      <trkpt lat="35.634915" lon="139.708307">
      </trkpt>
      <trkpt lat="35.634428" lon="139.708414">
      </trkpt>
      <trkpt lat="35.633940" lon="139.708588">
      </trkpt>
      <trkpt lat="35.633451" lon="139.708793">
      </trkpt>
      <trkpt lat="35.632964" lon="139.709036">
      </trkpt>
      <trkpt lat="35.632479" lon="139.709331">
      </trkpt>
      <trkpt lat="35.632002" lon="139.709658">
      </trkpt>
      <trkpt lat="35.631526" lon="139.710024">
      </trkpt>
      <trkpt lat="35.631054" lon="139.710439">
      </trkpt>
      <trkpt lat="35.630584" lon="139.710878">
      </trkpt>
      <trkpt lat="35.630113" lon="139.711373">
      </trkpt>
      <trkpt lat="35.629637" lon="139.711891">
      </trkpt>
      <trkpt lat="35.629181" lon="139.712403">
      </trkpt>
      <trkpt lat="35.628727" lon="139.712936">
      </trkpt>
      <trkpt lat="35.628284" lon="139.713469">
      </trkpt>
      <trkpt lat="35.627856" lon="139.714016">
      </trkpt>
      <trkpt lat="35.627445" lon="139.714559">
      </trkpt>
      <trkpt lat="35.627085" lon="139.715090">
      </trkpt>
      <trkpt lat="35.626770" lon="139.715596">
      </trkpt>
      <trkpt lat="35.626473" lon="139.716093">
      </trkpt>
      <trkpt lat="35.626201" lon="139.716584">
      </trkpt>
      <trkpt lat="35.625931" lon="139.717083">
      </trkpt>
      <trkpt lat="35.625659" lon="139.717594">
      </trkpt>
      <trkpt lat="35.625379" lon="139.718121">
      </trkpt>
      <trkpt lat="35.625100" lon="139.718647">
      </trkpt>
      <trkpt lat="35.624821" lon="139.719171">
      </trkpt>
      <trkpt lat="35.624538" lon="139.719699">
      </trkpt>
      <trkpt lat="35.624270" lon="139.720192">
      </trkpt>
      <trkpt lat="35.624019" lon="139.720655">
      </trkpt>
      <trkpt lat="35.623659" lon="139.721320">
      </trkpt>
      <trkpt lat="35.623332" lon="139.721933">
      </trkpt>
      <trkpt lat="35.623019" lon="139.722533">
      </trkpt>
      <trkpt lat="35.622730" lon="139.723103">
      </trkpt>
      <trkpt lat="35.622454" lon="139.723634">
      </trkpt>
      <trkpt lat="35.622194" lon="139.724129">
      </trkpt>
      <trkpt lat="35.621878" lon="139.724721">
      </trkpt>
      <trkpt lat="35.621574" lon="139.725240">
      </trkpt>
      <trkpt lat="35.621256" lon="139.725709">
      </trkpt>
      <trkpt lat="35.620870" lon="139.726195">
      </trkpt>
      <trkpt lat="35.620549" lon="139.726623">
      </trkpt>
      <trkpt lat="35.620281" lon="139.727081">
      </trkpt>
      <trkpt lat="35.620485" lon="139.726526">
      </trkpt>
      <trkpt lat="35.620815" lon="139.726056">
      </trkpt>
      <trkpt lat="35.621196" lon="139.725556">
      </trkpt>
      <trkpt lat="35.621522" lon="139.725144">
      </trkpt>
      <trkpt lat="35.621945" lon="139.724718">
      </trkpt>
      <trkpt lat="35.622391" lon="139.724361">
      </trkpt>
      <trkpt lat="35.622872" lon="139.724083">
      </trkpt>
      <trkpt lat="35.623400" lon="139.723885">
      </trkpt>
      <trkpt lat="35.623944" lon="139.723733">
      </trkpt>
      <trkpt lat="35.624463" lon="139.723632">
      </trkpt>
      <trkpt lat="35.624925" lon="139.723602">
      </trkpt>
      <trkpt lat="35.625371" lon="139.723689">
      </trkpt>
      <trkpt lat="35.625799" lon="139.724010">
      </trkpt>
      <trkpt lat="35.626223" lon="139.724215">
      </trkpt>
      <trkpt lat="35.626660" lon="139.723900">
      </trkpt>
      <trkpt lat="35.626937" lon="139.723412">
      </trkpt>
      <trkpt lat="35.627253" lon="139.722864">
      </trkpt>
      <trkpt lat="35.627576" lon="139.722325">
      </trkpt>
      <trkpt lat="35.627870" lon="139.721878">
      </trkpt>
      <trkpt lat="35.628207" lon="139.721412">
      </trkpt>
      <trkpt lat="35.628571" lon="139.720943">
      </trkpt>
      <trkpt lat="35.628939" lon="139.720483">
      </trkpt>
      <trkpt lat="35.629320" lon="139.720026">
      </trkpt>
      <trkpt lat="35.629726" lon="139.719569">
      </trkpt>
      <trkpt lat="35.630131" lon="139.719092">
      </trkpt>
      <trkpt lat="35.630525" lon="139.718585">
      </trkpt>
      <trkpt lat="35.630875" lon="139.718069">
      </trkpt>
      <trkpt lat="35.631171" lon="139.717623">
      </trkpt>
      <trkpt lat="35.631507" lon="139.717099">
      </trkpt>
      <trkpt lat="35.631718" lon="139.716610">
      </trkpt>
      <trkpt lat="35.631436" lon="139.717131">
      </trkpt>
      <trkpt lat="35.631131" lon="139.717628">
      </trkpt>
      <trkpt lat="35.630850" lon="139.718073">
      </trkpt>
      <trkpt lat="35.630546" lon="139.718555">
      </trkpt>
      <trkpt lat="35.630241" lon="139.719075">
      </trkpt>
      <trkpt lat="35.629927" lon="139.719637">
      </trkpt>
      <trkpt lat="35.629625" lon="139.720244">
      </trkpt>
      <trkpt lat="35.629360" lon="139.720909">
      </trkpt>
      <trkpt lat="35.629145" lon="139.721597">
      </trkpt>
      <trkpt lat="35.628992" lon="139.722306">
      </trkpt>
      <trkpt lat="35.628903" lon="139.723068">
      </trkpt>
      <trkpt lat="35.628909" lon="139.723835">
      </trkpt>
      <trkpt lat="35.628990" lon="139.724583">
      </trkpt>
      <trkpt lat="35.629112" lon="139.725326">
      </trkpt>
      <trkpt lat="35.629291" lon="139.726000">
      </trkpt>
      <trkpt lat="35.629479" lon="139.726632">
      </trkpt>
      <trkpt lat="35.629680" lon="139.727295">
      </trkpt>
      <trkpt lat="35.629890" lon="139.727875">
      </trkpt>
      <trkpt lat="35.630066" lon="139.728430">
      </trkpt>
      <trkpt lat="35.630278" lon="139.729087">
      </trkpt>
      <trkpt lat="35.630434" lon="139.729689">
      </trkpt>
      <trkpt lat="35.630535" lon="139.730278">
      </trkpt>
      <trkpt lat="35.630567" lon="139.730862">
      </trkpt>
      <trkpt lat="35.630559" lon="139.731464">
      </trkpt>
      <trkpt lat="35.630526" lon="139.732065">
      </trkpt>
      <trkpt lat="35.630460" lon="139.732647">
      </trkpt>
      <trkpt lat="35.630272" lon="139.733326">
      </trkpt>
      <trkpt lat="35.629984" lon="139.733953">
      </trkpt>
      <trkpt lat="35.629693" lon="139.734399">
      </trkpt>
      <trkpt lat="35.629395" lon="139.734818">
      </trkpt>
      <trkpt lat="35.629030" lon="139.735344">
      </trkpt>
      <trkpt lat="35.628704" lon="139.735855">
      </trkpt>
      <trkpt lat="35.628603" lon="139.736450">
      </trkpt>
      <trkpt lat="35.628808" lon="139.736956">
      </trkpt>
      <trkpt lat="35.629165" lon="139.737437">
      </trkpt>
      <trkpt lat="35.629643" lon="139.737632">
      </trkpt>
      <trkpt lat="35.630116" lon="139.737814">
      </trkpt>
      <trkpt lat="35.630649" lon="139.738010">
      </trkpt>
      <trkpt lat="35.631177" lon="139.738184">
      </trkpt>
      <trkpt lat="35.631666" lon="139.738326">
      </trkpt>
      <trkpt lat="35.632185" lon="139.738483">
      </trkpt>
      <trkpt lat="35.632739" lon="139.738673">
      </trkpt>
      <trkpt lat="35.633277" lon="139.738878">
      </trkpt>
      <trkpt lat="35.633797" lon="139.739026">
      </trkpt>
      <trkpt lat="35.634314" lon="139.739140">
      </trkpt>
      <trkpt lat="35.634849" lon="139.739296">
      </trkpt>
      <trkpt lat="35.635354" lon="139.739471">
      </trkpt>
      <trkpt lat="35.635837" lon="139.739657">
      </trkpt>
      <trkpt lat="35.636294" lon="139.739844">
      </trkpt>
      <trkpt lat="35.636733" lon="139.740034">
      </trkpt>
      <trkpt lat="35.637214" lon="139.740242">
      </trkpt>
      <trkpt lat="35.637720" lon="139.740433">
      </trkpt>
      <trkpt lat="35.638255" lon="139.740600">
      </trkpt>
      <trkpt lat="35.638843" lon="139.740787">
      </trkpt>
      <trkpt lat="35.639449" lon="139.741008">
      </trkpt>
      <trkpt lat="35.640071" lon="139.741260">
      </trkpt>
      <trkpt lat="35.640682" lon="139.741533">
      </trkpt>
      <trkpt lat="35.641098" lon="139.741743">
      </trkpt>
      <trkpt lat="35.641510" lon="139.741970">
      </trkpt>
      <trkpt lat="35.642099" lon="139.742319">
      </trkpt>
      <trkpt lat="35.642685" lon="139.742691">
      </trkpt>
      <trkpt lat="35.643235" lon="139.743156">
      </trkpt>
      <trkpt lat="35.643743" lon="139.743597">
      </trkpt>
      <trkpt lat="35.644165" lon="139.744009">
      </trkpt>
      <trkpt lat="35.644536" lon="139.744404">
      </trkpt>
      <trkpt lat="35.644888" lon="139.744791">
      </trkpt>
      <trkpt lat="35.645306" lon="139.745284">
      </trkpt>
      <trkpt lat="35.645630" lon="139.745727">
      </trkpt>
      <trkpt lat="35.645981" lon="139.746242">
      </trkpt>
      <trkpt lat="35.646315" lon="139.746737">
      </trkpt>
      <trkpt lat="35.646581" lon="139.747227">
      </trkpt>
      <trkpt lat="35.646948" lon="139.747612">
      </trkpt>
      <trkpt lat="35.647411" lon="139.747823">
      </trkpt>
      <trkpt lat="35.647866" lon="139.748013">
      </trkpt>
      <trkpt lat="35.648380" lon="139.748270">
      </trkpt>
      <trkpt lat="35.648783" lon="139.748536">
      </trkpt>
      <trkpt lat="35.649187" lon="139.748834">
      </trkpt>
      <trkpt lat="35.649618" lon="139.749141">
      </trkpt>
      <trkpt lat="35.650063" lon="139.749461">
      </trkpt>
      <trkpt lat="35.650498" lon="139.749837">
      </trkpt>
      <trkpt lat="35.650926" lon="139.750243">
      </trkpt>
      <trkpt lat="35.651337" lon="139.750687">
      </trkpt>
      <trkpt lat="35.651721" lon="139.751215">
      </trkpt>
      <trkpt lat="35.652086" lon="139.751733">
      </trkpt>
      <trkpt lat="35.652451" lon="139.752196">
      </trkpt>
      <trkpt lat="35.652824" lon="139.752659">
      </trkpt>
      <trkpt lat="35.653145" lon="139.753054">
      </trkpt>
      <trkpt lat="35.653478" lon="139.753493">
      </trkpt>
      <trkpt lat="35.653769" lon="139.753974">
      </trkpt>
      <trkpt lat="35.654212" lon="139.754426">
      </trkpt>
      <trkpt lat="35.654680" lon="139.754684">
      </trkpt>
      <trkpt lat="35.655231" lon="139.754890">
      </trkpt>
      <trkpt lat="35.655763" lon="139.755092">
      </trkpt>
      <trkpt lat="35.656234" lon="139.755260">
      </trkpt>
      <trkpt lat="35.656761" lon="139.755425">
      </trkpt>
      <trkpt lat="35.657328" lon="139.755596">
      </trkpt>
      <trkpt lat="35.657921" lon="139.755725">
      </trkpt>
      <trkpt lat="35.658545" lon="139.755826">
      </trkpt>
      <trkpt lat="35.659196" lon="139.755953">
      </trkpt>
      <trkpt lat="35.659847" lon="139.756075">
      </trkpt>
      <trkpt lat="35.660506" lon="139.756240">
      </trkpt>
      <trkpt lat="35.660945" lon="139.756398">
      </trkpt>
      <trkpt lat="35.661385" lon="139.756566">
      </trkpt>
      <trkpt lat="35.661828" lon="139.756749">
      </trkpt>
      <trkpt lat="35.662272" lon="139.756942">
      </trkpt>
      <trkpt lat="35.662852" lon="139.757219">
      </trkpt>
      <trkpt lat="35.663408" lon="139.757484">
      </trkpt>
      <trkpt lat="35.663877" lon="139.757726">
      </trkpt>
      <trkpt lat="35.664302" lon="139.757943">
      </trkpt>
      <trkpt lat="35.664825" lon="139.758217">
      </trkpt>
      <trkpt lat="35.665347" lon="139.758470">
      </trkpt>
      <trkpt lat="35.665866" lon="139.758640">
      </trkpt>
      <trkpt lat="35.666363" lon="139.758764">
      </trkpt>
      <trkpt lat="35.666869" lon="139.758905">
      </trkpt>
      <trkpt lat="35.667365" lon="139.759098">
      </trkpt>
      <trkpt lat="35.667805" lon="139.759327">
      </trkpt>
      <trkpt lat="35.668303" lon="139.759625">
      </trkpt>
      <trkpt lat="35.668837" lon="139.759894">
      </trkpt>
      <trkpt lat="35.669395" lon="139.760105">
      </trkpt>
      <trkpt lat="35.669950" lon="139.760341">
      </trkpt>
      <trkpt lat="35.670393" lon="139.760546">
      </trkpt>
      <trkpt lat="35.670852" lon="139.760766">
      </trkpt>
      <trkpt lat="35.671316" lon="139.760994">
      </trkpt>
      <trkpt lat="35.671778" lon="139.761231">
      </trkpt>
      <trkpt lat="35.672262" lon="139.761485">
      </trkpt>
      <trkpt lat="35.672717" lon="139.761770">
      </trkpt>
      <trkpt lat="35.673145" lon="139.762058">
      </trkpt>
      <trkpt lat="35.673571" lon="139.762347">
      </trkpt>
      <trkpt lat="35.673996" lon="139.762628">
      </trkpt>
      <trkpt lat="35.674420" lon="139.762888">
      </trkpt>
      <trkpt lat="35.674928" lon="139.763153">
      </trkpt>
      <trkpt lat="35.675450" lon="139.763369">
      </trkpt>
      <trkpt lat="35.675983" lon="139.763582">
      </trkpt>
      <trkpt lat="35.676508" lon="139.763846">
      </trkpt>
      <trkpt lat="35.677029" lon="139.764083">
      </trkpt>
      <trkpt lat="35.677458" lon="139.764319">
      </trkpt>
      <trkpt lat="35.677886" lon="139.764640">
      </trkpt>
      <trkpt lat="35.678334" lon="139.764974">
      </trkpt>
      <trkpt lat="35.678762" lon="139.765158">
      </trkpt>
      <trkpt lat="35.681017" lon="139.764937">
      </trkpt>
    </trkseg>
  </trk>
</gpx>
